{
"type": "FeatureCollection",
"name": "area2",
"crs": { "type": "name", "properties": { "name": "urn:ogc:def:crs:OGC:1.3:CRS84" } },
"features": [
{ "type": "Feature", "properties": { "Name": null, "description": "MODIFICACIONPARCELAS<BR><BR><B>ELEVATION</B> = 0", "timestamp": null, "begin": null, "end": null, "altitudeMode": "relativeToGround", "tessellate": -1, "extrude": 1, "visibility": -1, "drawOrder": null, "icon": null }, "geometry": { "type": "Polygon", "coordinates": [ [ [ -58.781805666700002, -27.5433271544, 0.0 ], [ -58.782255038499997, -27.543315427900001, 0.0 ], [ -58.782242179400008, -27.5434572783, 0.0 ], [ -58.781796778500002, -27.5434251975, 0.0 ], [ -58.781805666700002, -27.5433271544, 0.0 ] ] ] } },
{ "type": "Feature", "properties": { "Name": null, "description": "MODIFICACIONPARCELAS<BR><BR><B>ELEVATION</B> = 0", "timestamp": null, "begin": null, "end": null, "altitudeMode": "relativeToGround", "tessellate": -1, "extrude": 1, "visibility": -1, "drawOrder": null, "icon": null }, "geometry": { "type": "Polygon", "coordinates": [ [ [ -58.781361180700003, -27.543284989299998, 0.0 ], [ -58.781814539400003, -27.5432292825, 0.0 ], [ -58.781796778500002, -27.5434251975, 0.0 ], [ -58.781351377900002, -27.543393115299999, 0.0 ], [ -58.781361180700003, -27.543284989299998, 0.0 ] ] ] } },
{ "type": "Feature", "properties": { "Name": null, "description": "MODIFICACIONPARCELAS<BR><BR><B>ELEVATION</B> = 0", "timestamp": null, "begin": null, "end": null, "altitudeMode": "relativeToGround", "tessellate": -1, "extrude": 1, "visibility": -1, "drawOrder": null, "icon": null }, "geometry": { "type": "Polygon", "coordinates": [ [ [ -58.781796779, -27.5434251975, 0.0 ], [ -58.782242179400008, -27.5434572783, 0.0 ], [ -58.78223237169999, -27.543565468400001, 0.0 ], [ -58.781786970399999, -27.543533387499998, 0.0 ], [ -58.781796779, -27.5434251975, 0.0 ] ] ] } },
{ "type": "Feature", "properties": { "Name": null, "description": "MODIFICACIONPARCELAS<BR><BR><B>ELEVATION</B> = 0", "timestamp": null, "begin": null, "end": null, "altitudeMode": "relativeToGround", "tessellate": -1, "extrude": 1, "visibility": -1, "drawOrder": null, "icon": null }, "geometry": { "type": "Polygon", "coordinates": [ [ [ -58.781351377900002, -27.543393115299999, 0.0 ], [ -58.781796778500002, -27.5434251975, 0.0 ], [ -58.781786970399999, -27.543533387499998, 0.0 ], [ -58.781341569399999, -27.543501305300001, 0.0 ], [ -58.781351377900002, -27.543393115299999, 0.0 ] ] ] } },
{ "type": "Feature", "properties": { "Name": null, "description": "MODIFICACIONPARCELAS<BR><BR><B>ELEVATION</B> = 0", "timestamp": null, "begin": null, "end": null, "altitudeMode": "relativeToGround", "tessellate": -1, "extrude": 1, "visibility": -1, "drawOrder": null, "icon": null }, "geometry": { "type": "Polygon", "coordinates": [ [ [ -58.781341569399999, -27.543501305300001, 0.0 ], [ -58.781786970399999, -27.543533387499998, 0.0 ], [ -58.781777162200001, -27.543641577599999, 0.0 ], [ -58.781331760799993, -27.5436094953, 0.0 ], [ -58.781341569399999, -27.543501305300001, 0.0 ] ] ] } },
{ "type": "Feature", "properties": { "Name": null, "description": "MODIFICACIONPARCELAS<BR><BR><B>ELEVATION</B> = 0", "timestamp": null, "begin": null, "end": null, "altitudeMode": "relativeToGround", "tessellate": -1, "extrude": 1, "visibility": -1, "drawOrder": null, "icon": null }, "geometry": { "type": "Polygon", "coordinates": [ [ [ -58.781331760799993, -27.5436094953, 0.0 ], [ -58.781777162200001, -27.543641577599999, 0.0 ], [ -58.781766538699998, -27.543758761, 0.0 ], [ -58.78132113680001, -27.543726678700001, 0.0 ], [ -58.781331760799993, -27.5436094953, 0.0 ] ] ] } },
{ "type": "Feature", "properties": { "Name": null, "description": "MODIFICACIONPARCELAS<BR><BR><B>ELEVATION</B> = 0", "timestamp": null, "begin": null, "end": null, "altitudeMode": "relativeToGround", "tessellate": -1, "extrude": 1, "visibility": -1, "drawOrder": null, "icon": null }, "geometry": { "type": "Polygon", "coordinates": [ [ [ -58.781814539400003, -27.5432292825, 0.0 ], [ -58.782267897799997, -27.543173574099999, 0.0 ], [ -58.782255038499997, -27.543315427900001, 0.0 ], [ -58.781805666700002, -27.5433271544, 0.0 ], [ -58.781814539400003, -27.5432292825, 0.0 ] ] ] } },
{ "type": "Feature", "properties": { "Name": null, "description": "MODIFICACIONPARCELAS<BR><BR><B>ELEVATION</B> = 0", "timestamp": null, "begin": null, "end": null, "altitudeMode": "relativeToGround", "tessellate": -1, "extrude": 1, "visibility": -1, "drawOrder": null, "icon": null }, "geometry": { "type": "Polygon", "coordinates": [ [ [ -58.781297853399998, -27.543983495300001, 0.0 ], [ -58.781308906600003, -27.543861579, 0.0 ], [ -58.781754354299999, -27.543893161500009, 0.0 ], [ -58.781743240499999, -27.544015752300002, 0.0 ], [ -58.781297853399998, -27.543983495300001, 0.0 ] ] ] } },
{ "type": "Feature", "properties": { "Name": null, "description": "MODIFICACIONPARCELAS<BR><BR><B>ELEVATION</B> = 0", "timestamp": null, "begin": null, "end": null, "altitudeMode": "relativeToGround", "tessellate": -1, "extrude": 1, "visibility": -1, "drawOrder": null, "icon": null }, "geometry": { "type": "Polygon", "coordinates": [ [ [ -58.781297853399998, -27.543983495300001, 0.0 ], [ -58.781743240499999, -27.544015752300002, 0.0 ], [ -58.7817321279, -27.544138330199999, 0.0 ], [ -58.781286740299997, -27.5441060731, 0.0 ], [ -58.781297853399998, -27.543983495300001, 0.0 ] ] ] } },
{ "type": "Feature", "properties": { "Name": null, "description": "MODIFICACIONPARCELAS<BR><BR><B>ELEVATION</B> = 0", "timestamp": null, "begin": null, "end": null, "altitudeMode": "relativeToGround", "tessellate": -1, "extrude": 1, "visibility": -1, "drawOrder": null, "icon": null }, "geometry": { "type": "Polygon", "coordinates": [ [ [ -58.781275627100001, -27.544228651099999, 0.0 ], [ -58.781286740299997, -27.5441060731, 0.0 ], [ -58.7817321279, -27.544138330199999, 0.0 ], [ -58.781721015199999, -27.5442609081, 0.0 ], [ -58.781275627100001, -27.544228651099999, 0.0 ] ] ] } },
{ "type": "Feature", "properties": { "Name": null, "description": "MODIFICACIONPARCELAS<BR><BR><B>ELEVATION</B> = 0", "timestamp": null, "begin": null, "end": null, "altitudeMode": "relativeToGround", "tessellate": -1, "extrude": 1, "visibility": -1, "drawOrder": null, "icon": null }, "geometry": { "type": "Polygon", "coordinates": [ [ [ -58.781721015199999, -27.5442609081, 0.0 ], [ -58.781709902499998, -27.544383485899999, 0.0 ], [ -58.781264514, -27.5443512288, 0.0 ], [ -58.781275627100001, -27.544228651099999, 0.0 ], [ -58.781721015199999, -27.5442609081, 0.0 ] ] ] } },
{ "type": "Feature", "properties": { "Name": null, "description": "MODIFICACIONPARCELAS<BR><BR><B>ELEVATION</B> = 0", "timestamp": null, "begin": null, "end": null, "altitudeMode": "relativeToGround", "tessellate": -1, "extrude": 1, "visibility": -1, "drawOrder": null, "icon": null }, "geometry": { "type": "Polygon", "coordinates": [ [ [ -58.781253369600002, -27.544474150399999, 0.0 ], [ -58.781264514, -27.5443512288, 0.0 ], [ -58.781709902499998, -27.544383485899999, 0.0 ], [ -58.781698758599987, -27.544506407499998, 0.0 ], [ -58.781253369600002, -27.544474150399999, 0.0 ] ] ] } },
{ "type": "Feature", "properties": { "Name": null, "description": "MODIFICACIONPARCELAS<BR><BR><B>ELEVATION</B> = 0", "timestamp": null, "begin": null, "end": null, "altitudeMode": "relativeToGround", "tessellate": -1, "extrude": 1, "visibility": -1, "drawOrder": null, "icon": null }, "geometry": { "type": "Polygon", "coordinates": [ [ [ -58.781223094799998, -27.544808076599999, 0.0 ], [ -58.781668485200001, -27.544840333700002, 0.0 ], [ -58.781658459200003, -27.544950923199998, 0.0 ], [ -58.7812130684, -27.544918665899999, 0.0 ], [ -58.781223094799998, -27.544808076599999, 0.0 ] ] ] } },
{ "type": "Feature", "properties": { "Name": null, "description": "MODIFICACIONPARCELAS<BR><BR><B>ELEVATION</B> = 0", "timestamp": null, "begin": null, "end": null, "altitudeMode": "relativeToGround", "tessellate": -1, "extrude": 1, "visibility": -1, "drawOrder": null, "icon": null }, "geometry": { "type": "Polygon", "coordinates": [ [ [ -58.781223094799998, -27.544808076599999, 0.0 ], [ -58.781233552700002, -27.544692728099999, 0.0 ], [ -58.781678942600003, -27.544724985399998, 0.0 ], [ -58.781668485200001, -27.544840333700002, 0.0 ], [ -58.781223094799998, -27.544808076599999, 0.0 ] ] ] } },
{ "type": "Feature", "properties": { "Name": null, "description": "MODIFICACIONPARCELAS<BR><BR><B>ELEVATION</B> = 0", "timestamp": null, "begin": null, "end": null, "altitudeMode": "relativeToGround", "tessellate": -1, "extrude": 1, "visibility": -1, "drawOrder": null, "icon": null }, "geometry": { "type": "Polygon", "coordinates": [ [ [ -58.781688829899991, -27.544615925199999, 0.0 ], [ -58.781678942600003, -27.544724985399998, 0.0 ], [ -58.781233552700002, -27.544692728099999, 0.0 ], [ -58.78124344039999, -27.5445836679, 0.0 ], [ -58.781688829899991, -27.544615925199999, 0.0 ] ] ] } },
{ "type": "Feature", "properties": { "Name": null, "description": "MODIFICACIONPARCELAS<BR><BR><B>ELEVATION</B> = 0", "timestamp": null, "begin": null, "end": null, "altitudeMode": "relativeToGround", "tessellate": -1, "extrude": 1, "visibility": -1, "drawOrder": null, "icon": null }, "geometry": { "type": "Polygon", "coordinates": [ [ [ -58.78124344039999, -27.5445836679, 0.0 ], [ -58.781253369600002, -27.544474150399999, 0.0 ], [ -58.781698758599987, -27.544506407499998, 0.0 ], [ -58.781688829899991, -27.544615925199999, 0.0 ], [ -58.78124344039999, -27.5445836679, 0.0 ] ] ] } },
{ "type": "Feature", "properties": { "Name": null, "description": "MODIFICACIONPARCELAS<BR><BR><B>ELEVATION</B> = 0", "timestamp": null, "begin": null, "end": null, "altitudeMode": "relativeToGround", "tessellate": -1, "extrude": 1, "visibility": -1, "drawOrder": null, "icon": null }, "geometry": { "type": "Polygon", "coordinates": [ [ [ -58.781658459200003, -27.544950923199998, 0.0 ], [ -58.781648559300002, -27.545060122199999, 0.0 ], [ -58.781203168, -27.5450278649, 0.0 ], [ -58.7812130684, -27.544918665899999, 0.0 ], [ -58.781658459200003, -27.544950923199998, 0.0 ] ] ] } },
{ "type": "Feature", "properties": { "Name": null, "description": "MODIFICACIONPARCELAS<BR><BR><B>ELEVATION</B> = 0", "timestamp": null, "begin": null, "end": null, "altitudeMode": "relativeToGround", "tessellate": -1, "extrude": 1, "visibility": -1, "drawOrder": null, "icon": null }, "geometry": { "type": "Polygon", "coordinates": [ [ [ -58.781648559300002, -27.545060122199999, 0.0 ], [ -58.781638388199987, -27.5451723113, 0.0 ], [ -58.781192997499993, -27.545140043300009, 0.0 ], [ -58.781203168, -27.5450278649, 0.0 ], [ -58.781648559300002, -27.545060122199999, 0.0 ] ] ] } },
{ "type": "Feature", "properties": { "Name": null, "description": "MODIFICACIONPARCELAS<BR><BR><B>ELEVATION</B> = 0", "timestamp": null, "begin": null, "end": null, "altitudeMode": "relativeToGround", "tessellate": -1, "extrude": 1, "visibility": -1, "drawOrder": null, "icon": null }, "geometry": { "type": "Polygon", "coordinates": [ [ [ -58.781183188, -27.545248238500001, 0.0 ], [ -58.781192997499993, -27.545140043300009, 0.0 ], [ -58.781638388199987, -27.5451723113, 0.0 ], [ -58.781628596, -27.545280321500002, 0.0 ], [ -58.781183188, -27.545248238500001, 0.0 ] ] ] } },
{ "type": "Feature", "properties": { "Name": null, "description": "MODIFICACIONPARCELAS<BR><BR><B>ELEVATION</B> = 0", "timestamp": null, "begin": null, "end": null, "altitudeMode": "relativeToGround", "tessellate": -1, "extrude": 1, "visibility": -1, "drawOrder": null, "icon": null }, "geometry": { "type": "Polygon", "coordinates": [ [ [ -58.782083781499999, -27.5452045535, 0.0 ], [ -58.7820740043, -27.545312403, 0.0 ], [ -58.781628596, -27.545280321500002, 0.0 ], [ -58.781638388199987, -27.5451723113, 0.0 ], [ -58.782083781499999, -27.5452045535, 0.0 ] ] ] } },
{ "type": "Feature", "properties": { "Name": null, "description": "MODIFICACIONPARCELAS<BR><BR><B>ELEVATION</B> = 0", "timestamp": null, "begin": null, "end": null, "altitudeMode": "relativeToGround", "tessellate": -1, "extrude": 1, "visibility": -1, "drawOrder": null, "icon": null }, "geometry": { "type": "Polygon", "coordinates": [ [ [ -58.781688829899991, -27.544615925199999, 0.0 ], [ -58.781698758599987, -27.544506407499998, 0.0 ], [ -58.782144148, -27.544538663200001, 0.0 ], [ -58.782134219699998, -27.544648181, 0.0 ], [ -58.781688829899991, -27.544615925199999, 0.0 ] ] ] } },
{ "type": "Feature", "properties": { "Name": null, "description": "MODIFICACIONPARCELAS<BR><BR><B>ELEVATION</B> = 0", "timestamp": null, "begin": null, "end": null, "altitudeMode": "relativeToGround", "tessellate": -1, "extrude": 1, "visibility": -1, "drawOrder": null, "icon": null }, "geometry": { "type": "Polygon", "coordinates": [ [ [ -58.781678942600003, -27.544724985399998, 0.0 ], [ -58.781688829899991, -27.544615925199999, 0.0 ], [ -58.782134219699998, -27.544648181, 0.0 ], [ -58.782124332800009, -27.544757241300001, 0.0 ], [ -58.781678942600003, -27.544724985399998, 0.0 ] ] ] } },
{ "type": "Feature", "properties": { "Name": null, "description": "MODIFICACIONPARCELAS<BR><BR><B>ELEVATION</B> = 0", "timestamp": null, "begin": null, "end": null, "altitudeMode": "relativeToGround", "tessellate": -1, "extrude": 1, "visibility": -1, "drawOrder": null, "icon": null }, "geometry": { "type": "Polygon", "coordinates": [ [ [ -58.781668485200001, -27.544840333700002, 0.0 ], [ -58.781678942600003, -27.544724985399998, 0.0 ], [ -58.782124332800009, -27.544757241300001, 0.0 ], [ -58.782113875900002, -27.544872589499999, 0.0 ], [ -58.781668485200001, -27.544840333700002, 0.0 ] ] ] } },
{ "type": "Feature", "properties": { "Name": null, "description": "MODIFICACIONPARCELAS<BR><BR><B>ELEVATION</B> = 0", "timestamp": null, "begin": null, "end": null, "altitudeMode": "relativeToGround", "tessellate": -1, "extrude": 1, "visibility": -1, "drawOrder": null, "icon": null }, "geometry": { "type": "Polygon", "coordinates": [ [ [ -58.781658459200003, -27.544950923199998, 0.0 ], [ -58.781668485200001, -27.544840333700002, 0.0 ], [ -58.782113875900002, -27.544872589499999, 0.0 ], [ -58.782103850399999, -27.544983179100001, 0.0 ], [ -58.781658459200003, -27.544950923199998, 0.0 ] ] ] } },
{ "type": "Feature", "properties": { "Name": null, "description": "MODIFICACIONPARCELAS<BR><BR><B>ELEVATION</B> = 0", "timestamp": null, "begin": null, "end": null, "altitudeMode": "relativeToGround", "tessellate": -1, "extrude": 1, "visibility": -1, "drawOrder": null, "icon": null }, "geometry": { "type": "Polygon", "coordinates": [ [ [ -58.782103850399999, -27.544983179100001, 0.0 ], [ -58.782093950899998, -27.545092378, 0.0 ], [ -58.781648559300002, -27.545060122199999, 0.0 ], [ -58.781658459200003, -27.544950923199998, 0.0 ], [ -58.782103850399999, -27.544983179100001, 0.0 ] ] ] } },
{ "type": "Feature", "properties": { "Name": null, "description": "MODIFICACIONPARCELAS<BR><BR><B>ELEVATION</B> = 0", "timestamp": null, "begin": null, "end": null, "altitudeMode": "relativeToGround", "tessellate": -1, "extrude": 1, "visibility": -1, "drawOrder": null, "icon": null }, "geometry": { "type": "Polygon", "coordinates": [ [ [ -58.782093950899998, -27.545092378, 0.0 ], [ -58.782083781499999, -27.5452045535, 0.0 ], [ -58.781638388199987, -27.5451723113, 0.0 ], [ -58.781648559300002, -27.545060122199999, 0.0 ], [ -58.782093950899998, -27.545092378, 0.0 ] ] ] } },
{ "type": "Feature", "properties": { "Name": null, "description": "MODIFICACIONPARCELAS<BR><BR><B>ELEVATION</B> = 0", "timestamp": null, "begin": null, "end": null, "altitudeMode": "relativeToGround", "tessellate": -1, "extrude": 1, "visibility": -1, "drawOrder": null, "icon": null }, "geometry": { "type": "Polygon", "coordinates": [ [ [ -58.781721015199999, -27.5442609081, 0.0 ], [ -58.7817321279, -27.544138330199999, 0.0 ], [ -58.782177515800001, -27.5441705858, 0.0 ], [ -58.782166403600002, -27.544293163599999, 0.0 ], [ -58.781721015199999, -27.5442609081, 0.0 ] ] ] } },
{ "type": "Feature", "properties": { "Name": null, "description": "MODIFICACIONPARCELAS<BR><BR><B>ELEVATION</B> = 0", "timestamp": null, "begin": null, "end": null, "altitudeMode": "relativeToGround", "tessellate": -1, "extrude": 1, "visibility": -1, "drawOrder": null, "icon": null }, "geometry": { "type": "Polygon", "coordinates": [ [ [ -58.781709902499998, -27.544383485899999, 0.0 ], [ -58.781721015199999, -27.5442609081, 0.0 ], [ -58.782166403600002, -27.544293163599999, 0.0 ], [ -58.782155291400002, -27.5444157417, 0.0 ], [ -58.781709902499998, -27.544383485899999, 0.0 ] ] ] } },
{ "type": "Feature", "properties": { "Name": null, "description": "MODIFICACIONPARCELAS<BR><BR><B>ELEVATION</B> = 0", "timestamp": null, "begin": null, "end": null, "altitudeMode": "relativeToGround", "tessellate": -1, "extrude": 1, "visibility": -1, "drawOrder": null, "icon": null }, "geometry": { "type": "Polygon", "coordinates": [ [ [ -58.782155291400002, -27.5444157417, 0.0 ], [ -58.782144148, -27.544538663200001, 0.0 ], [ -58.781698758599987, -27.544506407499998, 0.0 ], [ -58.781709902499998, -27.544383485899999, 0.0 ], [ -58.782155291400002, -27.5444157417, 0.0 ] ] ] } },
{ "type": "Feature", "properties": { "Name": null, "description": "MODIFICACIONPARCELAS<BR><BR><B>ELEVATION</B> = 0", "timestamp": null, "begin": null, "end": null, "altitudeMode": "relativeToGround", "tessellate": -1, "extrude": 1, "visibility": -1, "drawOrder": null, "icon": null }, "geometry": { "type": "Polygon", "coordinates": [ [ [ -58.781743240499999, -27.544015752300002, 0.0 ], [ -58.781754354299999, -27.543893161500009, 0.0 ], [ -58.782199742400003, -27.543925404199999, 0.0 ], [ -58.782188628, -27.544048007899999, 0.0 ], [ -58.781743240499999, -27.544015752300002, 0.0 ] ] ] } },
{ "type": "Feature", "properties": { "Name": null, "description": "MODIFICACIONPARCELAS<BR><BR><B>ELEVATION</B> = 0", "timestamp": null, "begin": null, "end": null, "altitudeMode": "relativeToGround", "tessellate": -1, "extrude": 1, "visibility": -1, "drawOrder": null, "icon": null }, "geometry": { "type": "Polygon", "coordinates": [ [ [ -58.782188628, -27.544048007899999, 0.0 ], [ -58.782177515800001, -27.5441705858, 0.0 ], [ -58.7817321279, -27.544138330199999, 0.0 ], [ -58.781743240499999, -27.544015752300002, 0.0 ], [ -58.782188628, -27.544048007899999, 0.0 ] ] ] } },
{ "type": "Feature", "properties": { "Name": null, "description": "MODIFICACIONPARCELAS<BR><BR><B>ELEVATION</B> = 0", "timestamp": null, "begin": null, "end": null, "altitudeMode": "relativeToGround", "tessellate": -1, "extrude": 1, "visibility": -1, "drawOrder": null, "icon": null }, "geometry": { "type": "Polygon", "coordinates": [ [ [ -58.781935437400001, -27.543544081299999, 0.0 ], [ -58.782083854100001, -27.543554771299998, 0.0 ], [ -58.782063423, -27.543780144799999, 0.0 ], [ -58.7819150061, -27.5437694548, 0.0 ], [ -58.781935437400001, -27.543544081299999, 0.0 ] ] ] } },
{ "type": "Feature", "properties": { "Name": null, "description": "MODIFICACIONPARCELAS<BR><BR><B>ELEVATION</B> = 0", "timestamp": null, "begin": null, "end": null, "altitudeMode": "relativeToGround", "tessellate": -1, "extrude": 1, "visibility": -1, "drawOrder": null, "icon": null }, "geometry": { "type": "Polygon", "coordinates": [ [ [ -58.782083854100001, -27.543554771299998, 0.0 ], [ -58.78223237169999, -27.543565468400001, 0.0 ], [ -58.782211940899998, -27.543790842, 0.0 ], [ -58.782063423, -27.543780144799999, 0.0 ], [ -58.782083854100001, -27.543554771299998, 0.0 ] ] ] } },
{ "type": "Feature", "properties": { "Name": null, "description": "MODIFICACIONPARCELAS<BR><BR><B>ELEVATION</B> = 0", "timestamp": null, "begin": null, "end": null, "altitudeMode": "relativeToGround", "tessellate": -1, "extrude": 1, "visibility": -1, "drawOrder": null, "icon": null }, "geometry": { "type": "Polygon", "coordinates": [ [ [ -58.781786970399999, -27.543533387499998, 0.0 ], [ -58.781935437400001, -27.543544081299999, 0.0 ], [ -58.7819150061, -27.5437694548, 0.0 ], [ -58.781766538699998, -27.543758761, 0.0 ], [ -58.781786970399999, -27.543533387499998, 0.0 ] ] ] } },
{ "type": "Feature", "properties": { "Name": null, "description": "EXPANCION_POLIGONOS<BR><BR><B>ELEVATION</B> = 0", "timestamp": null, "begin": null, "end": null, "altitudeMode": "relativeToGround", "tessellate": -1, "extrude": 1, "visibility": -1, "drawOrder": null, "icon": null }, "geometry": { "type": "Polygon", "coordinates": [ [ [ -58.781150239399992, -27.5455174276, 0.0 ], [ -58.782049545100001, -27.5455822037, 0.0 ], [ -58.781965349899998, -27.5465109447, 0.0 ], [ -58.781061671400003, -27.546445675200001, 0.0 ], [ -58.781150239399992, -27.5455174276, 0.0 ] ] ] } },
{ "type": "Feature", "properties": { "Name": null, "description": "EXPANCION_POLIGONOS<BR><BR><B>ELEVATION</B> = 0", "timestamp": null, "begin": null, "end": null, "altitudeMode": "relativeToGround", "tessellate": -1, "extrude": 1, "visibility": -1, "drawOrder": null, "icon": null }, "geometry": { "type": "Polygon", "coordinates": [ [ [ -58.781062306899997, -27.546581502199999, 0.0 ], [ -58.7819531337, -27.5466456678, 0.0 ], [ -58.781871494100002, -27.547546172099999, 0.0 ], [ -58.780980692399993, -27.547481649600009, 0.0 ], [ -58.781062306899997, -27.546581502199999, 0.0 ] ] ] } },
{ "type": "Feature", "properties": { "Name": null, "description": "EXPANCION_POLIGONOS<BR><BR><B>ELEVATION</B> = 0", "timestamp": null, "begin": null, "end": null, "altitudeMode": "relativeToGround", "tessellate": -1, "extrude": 1, "visibility": -1, "drawOrder": null, "icon": null }, "geometry": { "type": "Polygon", "coordinates": [ [ [ -58.7810948698, -27.546097747899999, 0.0 ], [ -58.781545893500002, -27.546130234500001, 0.0 ], [ -58.781535093700001, -27.5462463179, 0.0 ], [ -58.781083795800001, -27.546213811600001, 0.0 ], [ -58.7810948698, -27.546097747899999, 0.0 ] ] ] } },
{ "type": "Feature", "properties": { "Name": null, "description": "EXPANCION_POLIGONOS<BR><BR><B>ELEVATION</B> = 0", "timestamp": null, "begin": null, "end": null, "altitudeMode": "relativeToGround", "tessellate": -1, "extrude": 1, "visibility": -1, "drawOrder": null, "icon": null }, "geometry": { "type": "Polygon", "coordinates": [ [ [ -58.781072721799987, -27.546329875200001, 0.0 ], [ -58.781524293899999, -27.546362401300001, 0.0 ], [ -58.781513518499999, -27.546478222099999, 0.0 ], [ -58.781061671400003, -27.546445675200001, 0.0 ], [ -58.781072721799987, -27.546329875200001, 0.0 ] ] ] } },
{ "type": "Feature", "properties": { "Name": null, "description": "EXPANCION_POLIGONOS<BR><BR><B>ELEVATION</B> = 0", "timestamp": null, "begin": null, "end": null, "altitudeMode": "relativeToGround", "tessellate": -1, "extrude": 1, "visibility": -1, "drawOrder": null, "icon": null }, "geometry": { "type": "Polygon", "coordinates": [ [ [ -58.781524293899999, -27.546362401300001, 0.0 ], [ -58.781975865600003, -27.5463949259, 0.0 ], [ -58.781965349899998, -27.5465109447, 0.0 ], [ -58.781513518499999, -27.546478222099999, 0.0 ], [ -58.781524293899999, -27.546362401300001, 0.0 ] ] ] } },
{ "type": "Feature", "properties": { "Name": null, "description": "EXPANCION_POLIGONOS<BR><BR><B>ELEVATION</B> = 0", "timestamp": null, "begin": null, "end": null, "altitudeMode": "relativeToGround", "tessellate": -1, "extrude": 1, "visibility": -1, "drawOrder": null, "icon": null }, "geometry": { "type": "Polygon", "coordinates": [ [ [ -58.781535093700001, -27.5462463179, 0.0 ], [ -58.781986391399997, -27.546278822800002, 0.0 ], [ -58.781975865600003, -27.5463949259, 0.0 ], [ -58.781524293899999, -27.546362401300001, 0.0 ], [ -58.781535093700001, -27.5462463179, 0.0 ] ] ] } },
{ "type": "Feature", "properties": { "Name": null, "description": "EXPANCION_POLIGONOS<BR><BR><B>ELEVATION</B> = 0", "timestamp": null, "begin": null, "end": null, "altitudeMode": "relativeToGround", "tessellate": -1, "extrude": 1, "visibility": -1, "drawOrder": null, "icon": null }, "geometry": { "type": "Polygon", "coordinates": [ [ [ -58.781599892, -27.545549817400001, 0.0 ], [ -58.782049545100001, -27.5455822037, 0.0 ], [ -58.782039019499997, -27.5456983069, 0.0 ], [ -58.781589092399997, -27.5456659008, 0.0 ], [ -58.781599892, -27.545549817400001, 0.0 ] ] ] } },
{ "type": "Feature", "properties": { "Name": null, "description": "EXPANCION_POLIGONOS<BR><BR><B>ELEVATION</B> = 0", "timestamp": null, "begin": null, "end": null, "altitudeMode": "relativeToGround", "tessellate": -1, "extrude": 1, "visibility": -1, "drawOrder": null, "icon": null }, "geometry": { "type": "Polygon", "coordinates": [ [ [ -58.781150239200002, -27.5455174296, 0.0 ], [ -58.781599892, -27.545549817400001, 0.0 ], [ -58.781589092399997, -27.5456659008, 0.0 ], [ -58.781139165399999, -27.545633493299999, 0.0 ], [ -58.781150239200002, -27.5455174296, 0.0 ] ] ] } },
{ "type": "Feature", "properties": { "Name": null, "description": "EXPANCION_POLIGONOS<BR><BR><B>ELEVATION</B> = 0", "timestamp": null, "begin": null, "end": null, "altitudeMode": "relativeToGround", "tessellate": -1, "extrude": 1, "visibility": -1, "drawOrder": null, "icon": null }, "geometry": { "type": "Polygon", "coordinates": [ [ [ -58.781578292699997, -27.545781984200001, 0.0 ], [ -58.782028494, -27.5458144101, 0.0 ], [ -58.782017968300003, -27.545930513199998, 0.0 ], [ -58.781567493, -27.545898067700001, 0.0 ], [ -58.781578292699997, -27.545781984200001, 0.0 ] ] ] } },
{ "type": "Feature", "properties": { "Name": null, "description": "EXPANCION_POLIGONOS<BR><BR><B>ELEVATION</B> = 0", "timestamp": null, "begin": null, "end": null, "altitudeMode": "relativeToGround", "tessellate": -1, "extrude": 1, "visibility": -1, "drawOrder": null, "icon": null }, "geometry": { "type": "Polygon", "coordinates": [ [ [ -58.781139165399999, -27.545633493299999, 0.0 ], [ -58.781589092399997, -27.5456659008, 0.0 ], [ -58.781578292699997, -27.545781984200001, 0.0 ], [ -58.781128091500001, -27.545749557, 0.0 ], [ -58.781139165399999, -27.545633493299999, 0.0 ] ] ] } },
{ "type": "Feature", "properties": { "Name": null, "description": "EXPANCION_POLIGONOS<BR><BR><B>ELEVATION</B> = 0", "timestamp": null, "begin": null, "end": null, "altitudeMode": "relativeToGround", "tessellate": -1, "extrude": 1, "visibility": -1, "drawOrder": null, "icon": null }, "geometry": { "type": "Polygon", "coordinates": [ [ [ -58.781589092399997, -27.5456659008, 0.0 ], [ -58.782039019499997, -27.5456983069, 0.0 ], [ -58.782028494, -27.5458144101, 0.0 ], [ -58.781578292699997, -27.545781984200001, 0.0 ], [ -58.781589092399997, -27.5456659008, 0.0 ] ] ] } },
{ "type": "Feature", "properties": { "Name": null, "description": "EXPANCION_POLIGONOS<BR><BR><B>ELEVATION</B> = 0", "timestamp": null, "begin": null, "end": null, "altitudeMode": "relativeToGround", "tessellate": -1, "extrude": 1, "visibility": -1, "drawOrder": null, "icon": null }, "geometry": { "type": "Polygon", "coordinates": [ [ [ -58.781128091500001, -27.545749557, 0.0 ], [ -58.781578292699997, -27.545781984200001, 0.0 ], [ -58.781567493, -27.545898067700001, 0.0 ], [ -58.781117017600003, -27.545865620600001, 0.0 ], [ -58.781128091500001, -27.545749557, 0.0 ] ] ] } },
{ "type": "Feature", "properties": { "Name": null, "description": "EXPANCION_POLIGONOS<BR><BR><B>ELEVATION</B> = 0", "timestamp": null, "begin": null, "end": null, "altitudeMode": "relativeToGround", "tessellate": -1, "extrude": 1, "visibility": -1, "drawOrder": null, "icon": null }, "geometry": { "type": "Polygon", "coordinates": [ [ [ -58.781117017600003, -27.545865620600001, 0.0 ], [ -58.781567493, -27.545898067700001, 0.0 ], [ -58.78155669329999, -27.5460141511, 0.0 ], [ -58.781105943699998, -27.545981684299999, 0.0 ], [ -58.781117017600003, -27.545865620600001, 0.0 ] ] ] } },
{ "type": "Feature", "properties": { "Name": null, "description": "EXPANCION_POLIGONOS<BR><BR><B>ELEVATION</B> = 0", "timestamp": null, "begin": null, "end": null, "altitudeMode": "relativeToGround", "tessellate": -1, "extrude": 1, "visibility": -1, "drawOrder": null, "icon": null }, "geometry": { "type": "Polygon", "coordinates": [ [ [ -58.781105943699998, -27.545981684299999, 0.0 ], [ -58.78155669329999, -27.5460141511, 0.0 ], [ -58.781545893500002, -27.546130234500001, 0.0 ], [ -58.7810948698, -27.546097747899999, 0.0 ], [ -58.781105943699998, -27.545981684299999, 0.0 ] ] ] } },
{ "type": "Feature", "properties": { "Name": null, "description": "EXPANCION_POLIGONOS<BR><BR><B>ELEVATION</B> = 0", "timestamp": null, "begin": null, "end": null, "altitudeMode": "relativeToGround", "tessellate": -1, "extrude": 1, "visibility": -1, "drawOrder": null, "icon": null }, "geometry": { "type": "Polygon", "coordinates": [ [ [ -58.781083795800001, -27.546213811600001, 0.0 ], [ -58.781535093700001, -27.5462463179, 0.0 ], [ -58.781524293899999, -27.546362401300001, 0.0 ], [ -58.781072721799987, -27.546329875200001, 0.0 ], [ -58.781083795800001, -27.546213811600001, 0.0 ] ] ] } },
{ "type": "Feature", "properties": { "Name": null, "description": "EXPANCION_POLIGONOS<BR><BR><B>ELEVATION</B> = 0", "timestamp": null, "begin": null, "end": null, "altitudeMode": "relativeToGround", "tessellate": -1, "extrude": 1, "visibility": -1, "drawOrder": null, "icon": null }, "geometry": { "type": "Polygon", "coordinates": [ [ [ -58.781545893500002, -27.546130234500001, 0.0 ], [ -58.781996917, -27.546162719600002, 0.0 ], [ -58.781986391399997, -27.546278822800002, 0.0 ], [ -58.781535093700001, -27.5462463179, 0.0 ], [ -58.781545893500002, -27.546130234500001, 0.0 ] ] ] } },
{ "type": "Feature", "properties": { "Name": null, "description": "EXPANCION_POLIGONOS<BR><BR><B>ELEVATION</B> = 0", "timestamp": null, "begin": null, "end": null, "altitudeMode": "relativeToGround", "tessellate": -1, "extrude": 1, "visibility": -1, "drawOrder": null, "icon": null }, "geometry": { "type": "Polygon", "coordinates": [ [ [ -58.78155669329999, -27.5460141511, 0.0 ], [ -58.782007442699999, -27.546046616400009, 0.0 ], [ -58.781996917, -27.546162719600002, 0.0 ], [ -58.781545893500002, -27.546130234500001, 0.0 ], [ -58.78155669329999, -27.5460141511, 0.0 ] ] ] } },
{ "type": "Feature", "properties": { "Name": null, "description": "EXPANCION_POLIGONOS<BR><BR><B>ELEVATION</B> = 0", "timestamp": null, "begin": null, "end": null, "altitudeMode": "relativeToGround", "tessellate": -1, "extrude": 1, "visibility": -1, "drawOrder": null, "icon": null }, "geometry": { "type": "Polygon", "coordinates": [ [ [ -58.781567493, -27.545898067700001, 0.0 ], [ -58.782017968300003, -27.545930513199998, 0.0 ], [ -58.782007442699999, -27.546046616400009, 0.0 ], [ -58.78155669329999, -27.5460141511, 0.0 ], [ -58.781567493, -27.545898067700001, 0.0 ] ] ] } },
{ "type": "Feature", "properties": { "Name": null, "description": "UN_TODO_SOLO<BR><BR><B>ELEVATION</B> = 0", "timestamp": null, "begin": null, "end": null, "altitudeMode": "relativeToGround", "tessellate": -1, "extrude": 1, "visibility": -1, "drawOrder": null, "icon": null }, "geometry": { "type": "Polygon", "coordinates": [ [ [ -58.780758912499998, -27.546424567199999, 0.0 ], [ -58.780847546499999, -27.545495623600001, 0.0 ], [ -58.782049545100001, -27.5455822037, 0.0 ], [ -58.781871494100002, -27.547546172099999, 0.0 ], [ -58.7814679138, -27.5475169439, 0.0 ], [ -58.781394514900001, -27.548326503199998, 0.0 ], [ -58.781386469599987, -27.548415238600001, 0.0 ], [ -58.781138346799999, -27.548314531100001, 0.0 ], [ -58.780577527299997, -27.5482643482, 0.0 ], [ -58.779433951100003, -27.5492132752, 0.0 ], [ -58.778976981699998, -27.5491474546, 0.0 ], [ -58.778849105799999, -27.549190370600002, 0.0 ], [ -58.778847775800003, -27.549184421, 0.0 ], [ -58.778790032400003, -27.549036647800001, 0.0 ], [ -58.7787125917, -27.5489078811, 0.0 ], [ -58.778633598600003, -27.5487984343, 0.0 ], [ -58.77857040180001, -27.5487030002, 0.0 ], [ -58.778520737599997, -27.548582162700001, 0.0 ], [ -58.7785258519, -27.548446841299999, 0.0 ], [ -58.778554389, -27.548336486, 0.0 ], [ -58.778565543600003, -27.5482769045, 0.0 ], [ -58.778555768399997, -27.548131161899999, 0.0 ], [ -58.778529597899997, -27.547963922400001, 0.0 ], [ -58.778474137700009, -27.5478434431, 0.0 ], [ -58.7784154896, -27.547700928800001, 0.0 ], [ -58.778397986800002, -27.547575501600001, 0.0 ], [ -58.778392571099999, -27.547491785799998, 0.0 ], [ -58.7785102972, -27.547403194499999, 0.0 ], [ -58.778626505399991, -27.547313104800001, 0.0 ], [ -58.7787408473, -27.547221867699999, 0.0 ], [ -58.778849677899991, -27.5471331392, 0.0 ], [ -58.778964953, -27.547038336500002, 0.0 ], [ -58.779075803799998, -27.546947172, 0.0 ], [ -58.779186665, -27.546857211799999, 0.0 ], [ -58.779298700499993, -27.546768579399998, 0.0 ], [ -58.7794137124, -27.546680026299999, 0.0 ], [ -58.779530534800003, -27.5465899111, 0.0 ], [ -58.779647429, -27.546496503099998, 0.0 ], [ -58.77976253029999, -27.546398048099999, 0.0 ], [ -58.779807327900002, -27.5463556413, 0.0 ], [ -58.780758912499998, -27.546424567199999, 0.0 ] ] ] } },
{ "type": "Feature", "properties": { "Name": null, "description": "COTAS_LOTEO<BR><BR><B>ELEVATION</B> = 0", "timestamp": null, "begin": null, "end": null, "altitudeMode": "relativeToGround", "tessellate": -1, "extrude": 1, "visibility": -1, "drawOrder": null, "icon": null }, "geometry": { "type": "Polygon", "coordinates": [ [ [ -58.779962040800001, -27.546502634100001, 0.0 ], [ -58.780746045500003, -27.5465594213, 0.0 ], [ -58.780660360799999, -27.547457434199998, 0.0 ], [ -58.779016713899992, -27.548231671300002, 0.0 ], [ -58.779084608, -27.547480099600001, 0.0 ], [ -58.77986600189999, -27.5475367023, 0.0 ], [ -58.779962040800001, -27.546502634100001, 0.0 ] ] ] } },
{ "type": "Feature", "properties": { "Name": null, "description": "COTAS_MANZANAS<BR><BR><B>ELEVATION</B> = 0", "timestamp": null, "begin": null, "end": null, "altitudeMode": "relativeToGround", "tessellate": -1, "extrude": 1, "visibility": -1, "drawOrder": null, "icon": null }, "geometry": { "type": "Polygon", "coordinates": [ [ [ -58.779878528700003, -27.5474018255, 0.0 ], [ -58.779096794399997, -27.5473451981, 0.0 ], [ -58.7791372545, -27.5468973067, 0.0 ], [ -58.779186665, -27.546857211799999, 0.0 ], [ -58.779298700499993, -27.546768579399998, 0.0 ], [ -58.7794137124, -27.546680026299999, 0.0 ], [ -58.779530534800003, -27.5465899111, 0.0 ], [ -58.779647429, -27.546496503099998, 0.0 ], [ -58.779665383400001, -27.546481145400001, 0.0 ], [ -58.779962040800001, -27.546502634100001, 0.0 ], [ -58.779878528700003, -27.5474018255, 0.0 ] ] ] } },
{ "type": "Feature", "properties": { "Name": null, "description": "UN_TODO_SOLO<BR><BR><B>ELEVATION</B> = 0", "timestamp": null, "begin": null, "end": null, "altitudeMode": "relativeToGround", "tessellate": -1, "extrude": 1, "visibility": -1, "drawOrder": null, "icon": null }, "geometry": { "type": "Polygon", "coordinates": [ [ [ -58.780758912499998, -27.546424567199999, 0.0 ], [ -58.780847546499999, -27.545495623600001, 0.0 ], [ -58.782049545100001, -27.5455822037, 0.0 ], [ -58.781871494100002, -27.547546172099999, 0.0 ], [ -58.7814679138, -27.5475169439, 0.0 ], [ -58.781394514900001, -27.548326503199998, 0.0 ], [ -58.781386469599987, -27.548415238600001, 0.0 ], [ -58.781138346799999, -27.548314531100001, 0.0 ], [ -58.780577527299997, -27.5482643482, 0.0 ], [ -58.779433951100003, -27.5492132752, 0.0 ], [ -58.778976981699998, -27.5491474546, 0.0 ], [ -58.778849105799999, -27.549190370600002, 0.0 ], [ -58.778847775800003, -27.549184421, 0.0 ], [ -58.778790032400003, -27.549036647800001, 0.0 ], [ -58.7787125917, -27.5489078811, 0.0 ], [ -58.778633598600003, -27.5487984343, 0.0 ], [ -58.77857040180001, -27.5487030002, 0.0 ], [ -58.778520737599997, -27.548582162700001, 0.0 ], [ -58.7785258519, -27.548446841299999, 0.0 ], [ -58.778554389, -27.548336486, 0.0 ], [ -58.778565543600003, -27.5482769045, 0.0 ], [ -58.778555768399997, -27.548131161899999, 0.0 ], [ -58.778529597899997, -27.547963922400001, 0.0 ], [ -58.778474137700009, -27.5478434431, 0.0 ], [ -58.7784154896, -27.547700928800001, 0.0 ], [ -58.778397986800002, -27.547575501600001, 0.0 ], [ -58.778392571099999, -27.547491785799998, 0.0 ], [ -58.7785102972, -27.547403194499999, 0.0 ], [ -58.778626505399991, -27.547313104800001, 0.0 ], [ -58.7787408473, -27.547221867699999, 0.0 ], [ -58.778849677899991, -27.5471331392, 0.0 ], [ -58.778964953, -27.547038336500002, 0.0 ], [ -58.779075803799998, -27.546947172, 0.0 ], [ -58.779186665, -27.546857211799999, 0.0 ], [ -58.779298700499993, -27.546768579399998, 0.0 ], [ -58.7794137124, -27.546680026299999, 0.0 ], [ -58.779530534800003, -27.5465899111, 0.0 ], [ -58.779647429, -27.546496503099998, 0.0 ], [ -58.77976253029999, -27.546398048099999, 0.0 ], [ -58.779807327900002, -27.5463556413, 0.0 ], [ -58.780758912499998, -27.546424567199999, 0.0 ] ] ] } },
{ "type": "Feature", "properties": { "Name": null, "description": "MANZANASV4<BR><BR><B>ELEVATION</B> = 0", "timestamp": null, "begin": null, "end": null, "altitudeMode": "relativeToGround", "tessellate": -1, "extrude": 1, "visibility": -1, "drawOrder": null, "icon": null }, "geometry": { "type": "Polygon", "coordinates": [ [ [ -58.772975391, -27.546534264200002, 0.0 ], [ -58.772568239199998, -27.546664671599999, 0.0 ], [ -58.772478896899997, -27.545382077799999, 0.0 ], [ -58.773226892499999, -27.545293069500001, 0.0 ], [ -58.773318168099998, -27.546603289099998, 0.0 ], [ -58.772975391, -27.546534264200002, 0.0 ] ] ] } },
{ "type": "Feature", "properties": { "Name": null, "description": "MANZANASV4<BR><BR><B>ELEVATION</B> = 0", "timestamp": null, "begin": null, "end": null, "altitudeMode": "relativeToGround", "tessellate": -1, "extrude": 1, "visibility": -1, "drawOrder": null, "icon": null }, "geometry": { "type": "Polygon", "coordinates": [ [ [ -58.773511178699998, -27.545006359799999, 0.0 ], [ -58.7734588868, -27.544255742299999, 0.0 ], [ -58.774399424600013, -27.544140227, 0.0 ], [ -58.774422515200008, -27.5449565662, 0.0 ], [ -58.773511178699998, -27.545006359799999, 0.0 ] ] ] } },
{ "type": "Feature", "properties": { "Name": null, "description": "MANZANASV4<BR><BR><B>ELEVATION</B> = 0", "timestamp": null, "begin": null, "end": null, "altitudeMode": "relativeToGround", "tessellate": -1, "extrude": 1, "visibility": -1, "drawOrder": null, "icon": null }, "geometry": { "type": "Polygon", "coordinates": [ [ [ -58.775501599, -27.546270858300002, 0.0 ], [ -58.776024365300003, -27.546240796399999, 0.0 ], [ -58.776224819699998, -27.546255242800001, 0.0 ], [ -58.776218092400001, -27.547230464399998, 0.0 ], [ -58.775570594199991, -27.546780497699999, 0.0 ], [ -58.775498082200002, -27.546780191, 0.0 ], [ -58.775501599, -27.546270858300002, 0.0 ] ] ] } },
{ "type": "Feature", "properties": { "Name": null, "description": "MANZANASV4<BR><BR><B>ELEVATION</B> = 0", "timestamp": null, "begin": null, "end": null, "altitudeMode": "relativeToGround", "tessellate": -1, "extrude": 1, "visibility": -1, "drawOrder": null, "icon": null }, "geometry": { "type": "Polygon", "coordinates": [ [ [ -58.776427131299997, -27.546269822799999, 0.0 ], [ -58.7771494136, -27.546321873099998, 0.0 ], [ -58.777020665899997, -27.547741303700001, 0.0 ], [ -58.776419551, -27.5473689791, 0.0 ], [ -58.776427131299997, -27.546269822799999, 0.0 ] ] ] } },
{ "type": "Feature", "properties": { "Name": null, "description": "MANZANASV4<BR><BR><B>ELEVATION</B> = 0", "timestamp": null, "begin": null, "end": null, "altitudeMode": "relativeToGround", "tessellate": -1, "extrude": 1, "visibility": -1, "drawOrder": null, "icon": null }, "geometry": { "type": "Polygon", "coordinates": [ [ [ -58.773606862800001, -27.5463797992, 0.0 ], [ -58.775299062199998, -27.546282504699999, 0.0 ], [ -58.775295630899997, -27.546779334299998, 0.0 ], [ -58.774168718799999, -27.546774560300001, 0.0 ], [ -58.773626762100001, -27.546665429800001, 0.0 ], [ -58.773606862800001, -27.5463797992, 0.0 ] ] ] } },
{ "type": "Feature", "properties": { "Name": null, "description": "MANZANASV4<BR><BR><B>ELEVATION</B> = 0", "timestamp": null, "begin": null, "end": null, "altitudeMode": "relativeToGround", "tessellate": -1, "extrude": 1, "visibility": -1, "drawOrder": null, "icon": null }, "geometry": { "type": "Polygon", "coordinates": [ [ [ -58.774430988399999, -27.5452272908, 0.0 ], [ -58.775306680100002, -27.545179445900001, 0.0 ], [ -58.775300311600013, -27.5461016048, 0.0 ], [ -58.774454577900002, -27.546150233700001, 0.0 ], [ -58.774430988399999, -27.5452272908, 0.0 ] ] ] } },
{ "type": "Feature", "properties": { "Name": null, "description": "MANZANASV4<BR><BR><B>ELEVATION</B> = 0", "timestamp": null, "begin": null, "end": null, "altitudeMode": "relativeToGround", "tessellate": -1, "extrude": 1, "visibility": -1, "drawOrder": null, "icon": null }, "geometry": { "type": "Polygon", "coordinates": [ [ [ -58.7755091999, -27.545169962900001, 0.0 ], [ -58.77641267229999, -27.545175740200001, 0.0 ], [ -58.776326213399997, -27.546081508099999, 0.0 ], [ -58.776026014599992, -27.546059873299999, 0.0 ], [ -58.775502848, -27.546089958300001, 0.0 ], [ -58.7755091999, -27.545169962900001, 0.0 ] ] ] } },
{ "type": "Feature", "properties": { "Name": null, "description": "MANZANASV4<BR><BR><B>ELEVATION</B> = 0", "timestamp": null, "begin": null, "end": null, "altitudeMode": "relativeToGround", "tessellate": -1, "extrude": 1, "visibility": -1, "drawOrder": null, "icon": null }, "geometry": { "type": "Polygon", "coordinates": [ [ [ -58.774399424600013, -27.544140227, 0.0 ], [ -58.775314632700002, -27.544027816300009, 0.0 ], [ -58.775308553599999, -27.5449081559, 0.0 ], [ -58.774422515200008, -27.5449565662, 0.0 ], [ -58.774399424600013, -27.544140227, 0.0 ] ] ] } },
{ "type": "Feature", "properties": { "Name": null, "description": "MANZANASV4<BR><BR><B>ELEVATION</B> = 0", "timestamp": null, "begin": null, "end": null, "altitudeMode": "relativeToGround", "tessellate": -1, "extrude": 1, "visibility": -1, "drawOrder": null, "icon": null }, "geometry": { "type": "Polygon", "coordinates": [ [ [ -58.775517256699999, -27.544002928099999, 0.0 ], [ -58.776432462800003, -27.54389051, 0.0 ], [ -58.776345994700002, -27.544904627400001, 0.0 ], [ -58.775511068599997, -27.544899288300002, 0.0 ], [ -58.775517256699999, -27.544002928099999, 0.0 ] ] ] } },
{ "type": "Feature", "properties": { "Name": null, "description": "MANZANASV4<BR><BR><B>ELEVATION</B> = 0", "timestamp": null, "begin": null, "end": null, "altitudeMode": "relativeToGround", "tessellate": -1, "extrude": 1, "visibility": -1, "drawOrder": null, "icon": null }, "geometry": { "type": "Polygon", "coordinates": [ [ [ -58.771686765, -27.544473373199999, 0.0 ], [ -58.77315721, -27.544292792299998, 0.0 ], [ -58.773208025199999, -27.545022233699999, 0.0 ], [ -58.771737183100001, -27.5451972541, 0.0 ], [ -58.771686765, -27.544473373199999, 0.0 ] ] ] } },
{ "type": "Feature", "properties": { "Name": null, "description": "MANZANASV4<BR><BR><B>ELEVATION</B> = 0", "timestamp": null, "begin": null, "end": null, "altitudeMode": "relativeToGround", "tessellate": -1, "extrude": 1, "visibility": -1, "drawOrder": null, "icon": null }, "geometry": { "type": "Polygon", "coordinates": [ [ [ -58.770209130600001, -27.544654820800009, 0.0 ], [ -58.771485646400002, -27.544498070700001, 0.0 ], [ -58.771536010299997, -27.545221191, 0.0 ], [ -58.770264305700003, -27.545372500399999, 0.0 ], [ -58.770209130600001, -27.544654820800009, 0.0 ] ] ] } },
{ "type": "Feature", "properties": { "Name": null, "description": "MANZANASV4<BR><BR><B>ELEVATION</B> = 0", "timestamp": null, "begin": null, "end": null, "altitudeMode": "relativeToGround", "tessellate": -1, "extrude": 1, "visibility": -1, "drawOrder": null, "icon": null }, "geometry": { "type": "Polygon", "coordinates": [ [ [ -58.778118425400002, -27.544557778800009, 0.0 ], [ -58.77916538800001, -27.544633588899991, 0.0 ], [ -58.779123139399999, -27.545099485400002, 0.0 ], [ -58.778078613300003, -27.545024226300001, 0.0 ], [ -58.778118425400002, -27.544557778800009, 0.0 ] ] ] } },
{ "type": "Feature", "properties": { "Name": null, "description": "MANZANASV4<BR><BR><B>ELEVATION</B> = 0", "timestamp": null, "begin": null, "end": null, "altitudeMode": "relativeToGround", "tessellate": -1, "extrude": 1, "visibility": -1, "drawOrder": null, "icon": null }, "geometry": { "type": "Polygon", "coordinates": [ [ [ -58.77946984430001, -27.543517374099999, 0.0 ], [ -58.7810548729, -27.543322626199998, 0.0 ], [ -58.780957397100003, -27.5443977557, 0.0 ], [ -58.780282822, -27.54370517, 0.0 ], [ -58.779445795100003, -27.543782265800001, 0.0 ], [ -58.77946984430001, -27.543517374099999, 0.0 ] ] ] } },
{ "type": "Feature", "properties": { "Name": null, "description": "MANZANASV4<BR><BR><B>ELEVATION</B> = 0", "timestamp": null, "begin": null, "end": null, "altitudeMode": "relativeToGround", "tessellate": -1, "extrude": 1, "visibility": -1, "drawOrder": null, "icon": null }, "geometry": { "type": "Polygon", "coordinates": [ [ [ -58.779445795100003, -27.543782265800001, 0.0 ], [ -58.780282822, -27.54370517, 0.0 ], [ -58.780957397100003, -27.5443977557, 0.0 ], [ -58.780549698100003, -27.544807319899999, 0.0 ], [ -58.780115966099999, -27.544709474699999, 0.0 ], [ -58.779365433099997, -27.544667409399999, 0.0 ], [ -58.779445795100003, -27.543782265800001, 0.0 ] ] ] } },
{ "type": "Feature", "properties": { "Name": null, "description": "MANZANASV4<BR><BR><B>ELEVATION</B> = 0", "timestamp": null, "begin": null, "end": null, "altitudeMode": "relativeToGround", "tessellate": -1, "extrude": 1, "visibility": -1, "drawOrder": null, "icon": null }, "geometry": { "type": "Polygon", "coordinates": [ [ [ -58.777358299699998, -27.5473779161, 0.0 ], [ -58.77809313920001, -27.5474308756, 0.0 ], [ -58.7780963489, -27.547581738200002, 0.0 ], [ -58.778114760599998, -27.547716079400001, 0.0 ], [ -58.77811941369999, -27.54781758, 0.0 ], [ -58.778138998099998, -27.547878739400002, 0.0 ], [ -58.778209159299998, -27.547967676500001, 0.0 ], [ -58.778248573100001, -27.5480622181, 0.0 ], [ -58.778255650399991, -27.548158487799999, 0.0 ], [ -58.778263922599997, -27.548283426800001, 0.0 ], [ -58.778233530800001, -27.548379494300001, 0.0 ], [ -58.778221052799999, -27.548437423199999, 0.0 ], [ -58.7782011125, -27.548444259899998, 0.0 ], [ -58.777289928800009, -27.548131708500001, 0.0 ], [ -58.777358299699998, -27.5473779161, 0.0 ] ] ] } },
{ "type": "Feature", "properties": { "Name": null, "description": "MANZANASV4<BR><BR><B>ELEVATION</B> = 0", "timestamp": null, "begin": null, "end": null, "altitudeMode": "relativeToGround", "tessellate": -1, "extrude": 1, "visibility": -1, "drawOrder": null, "icon": null }, "geometry": { "type": "Polygon", "coordinates": [ [ [ -58.777452105099997, -27.546343685, 0.0 ], [ -58.779000194799998, -27.546455229799999, 0.0 ], [ -58.778981742299997, -27.546658706100001, 0.0 ], [ -58.778231923, -27.547259563499999, 0.0 ], [ -58.777374613799999, -27.547198049799999, 0.0 ], [ -58.777452105099997, -27.546343685, 0.0 ] ] ] } },
{ "type": "Feature", "properties": { "Name": null, "description": "MANZANASV4<BR><BR><B>ELEVATION</B> = 0", "timestamp": null, "begin": null, "end": null, "altitudeMode": "relativeToGround", "tessellate": -1, "extrude": 1, "visibility": -1, "drawOrder": null, "icon": null }, "geometry": { "type": "Polygon", "coordinates": [ [ [ -58.771756046900002, -27.545468089900002, 0.0 ], [ -58.772478896899997, -27.545382077799999, 0.0 ], [ -58.772568239199998, -27.546664671599999, 0.0 ], [ -58.772324143699997, -27.5467428527, 0.0 ], [ -58.772051365199999, -27.5466088863, 0.0 ], [ -58.771839199399999, -27.5466619362, 0.0 ], [ -58.771756046900002, -27.545468089900002, 0.0 ] ] ] } },
{ "type": "Feature", "properties": { "Name": null, "description": "MANZANASV4<BR><BR><B>ELEVATION</B> = 0", "timestamp": null, "begin": null, "end": null, "altitudeMode": "relativeToGround", "tessellate": -1, "extrude": 1, "visibility": -1, "drawOrder": null, "icon": null }, "geometry": { "type": "Polygon", "coordinates": [ [ [ -58.770919941, -27.545567573500001, 0.0 ], [ -58.771554873600003, -27.5454920269, 0.0 ], [ -58.771639828700003, -27.5467117864, 0.0 ], [ -58.771167081199991, -27.546829989900001, 0.0 ], [ -58.771020229800001, -27.546945758900009, 0.0 ], [ -58.770919941, -27.545567573500001, 0.0 ] ] ] } },
{ "type": "Feature", "properties": { "Name": null, "description": "MANZANASV4<BR><BR><B>ELEVATION</B> = 0", "timestamp": null, "begin": null, "end": null, "altitudeMode": "relativeToGround", "tessellate": -1, "extrude": 1, "visibility": -1, "drawOrder": null, "icon": null }, "geometry": { "type": "Polygon", "coordinates": [ [ [ -58.770285109900001, -27.545643105, 0.0 ], [ -58.770919941, -27.545567573500001, 0.0 ], [ -58.771020229800001, -27.546945758900009, 0.0 ], [ -58.770654457500008, -27.547012066699999, 0.0 ], [ -58.770517927199997, -27.546947960800001, 0.0 ], [ -58.770423886100012, -27.54685285, 0.0 ], [ -58.7703703424, -27.546751733899999, 0.0 ], [ -58.770285109900001, -27.545643105, 0.0 ] ] ] } },
{ "type": "Feature", "properties": { "Name": null, "description": "MANZANASV4<BR><BR><B>ELEVATION</B> = 0", "timestamp": null, "begin": null, "end": null, "altitudeMode": "relativeToGround", "tessellate": -1, "extrude": 1, "visibility": -1, "drawOrder": null, "icon": null }, "geometry": { "type": "Polygon", "coordinates": [ [ [ -58.7775505985, -27.545257742099999, 0.0 ], [ -58.779098673100002, -27.545369285300001, 0.0 ], [ -58.779016506, -27.546275363199999, 0.0 ], [ -58.7774684189, -27.546163818699998, 0.0 ], [ -58.7775505985, -27.545257742099999, 0.0 ] ] ] } },
{ "type": "Feature", "properties": { "Name": null, "description": "MANZANASV4<BR><BR><B>ELEVATION</B> = 0", "timestamp": null, "begin": null, "end": null, "altitudeMode": "relativeToGround", "tessellate": -1, "extrude": 1, "visibility": -1, "drawOrder": null, "icon": null }, "geometry": { "type": "Polygon", "coordinates": [ [ [ -58.77641267229999, -27.545175740200001, 0.0 ], [ -58.776412672500001, -27.545175740200001, 0.0 ], [ -58.77724791, -27.545235930499999, 0.0 ], [ -58.777165727899998, -27.546142006899998, 0.0 ], [ -58.776326213399997, -27.546081508099999, 0.0 ], [ -58.77641267229999, -27.545175740200001, 0.0 ] ] ] } },
{ "type": "Feature", "properties": { "Name": null, "description": "MANZANASV4<BR><BR><B>ELEVATION</B> = 0", "timestamp": null, "begin": null, "end": null, "altitudeMode": "relativeToGround", "tessellate": -1, "extrude": 1, "visibility": -1, "drawOrder": null, "icon": null }, "geometry": { "type": "Polygon", "coordinates": [ [ [ -58.773529999399997, -27.545276512, 0.0 ], [ -58.774430988399999, -27.5452272908, 0.0 ], [ -58.774454577900002, -27.546150233700001, 0.0 ], [ -58.773594315099999, -27.5461996927, 0.0 ], [ -58.773529999399997, -27.545276512, 0.0 ] ] ] } },
{ "type": "Feature", "properties": { "Name": null, "description": "MANZANASV4<BR><BR><B>ELEVATION</B> = 0", "timestamp": null, "begin": null, "end": null, "altitudeMode": "relativeToGround", "tessellate": -1, "extrude": 1, "visibility": -1, "drawOrder": null, "icon": null }, "geometry": { "type": "Polygon", "coordinates": [ [ [ -58.779365433099997, -27.544667409399999, 0.0 ], [ -58.780115966099999, -27.544709474699999, 0.0 ], [ -58.780549698100003, -27.544807319899999, 0.0 ], [ -58.780469224100003, -27.544918083, 0.0 ], [ -58.780306752800001, -27.545184756200001, 0.0 ], [ -58.779324884700003, -27.545114020500009, 0.0 ], [ -58.779365433099997, -27.544667409399999, 0.0 ] ] ] } },
{ "type": "Feature", "properties": { "Name": null, "description": "MANZANASV4<BR><BR><B>ELEVATION</B> = 0", "timestamp": null, "begin": null, "end": null, "altitudeMode": "relativeToGround", "tessellate": -1, "extrude": 1, "visibility": -1, "drawOrder": null, "icon": null }, "geometry": { "type": "Polygon", "coordinates": [ [ [ -58.780957397100003, -27.5443977557, 0.0 ], [ -58.780901178199997, -27.5450178231, 0.0 ], [ -58.780818063700004, -27.545014612100001, 0.0 ], [ -58.780648236099999, -27.5450323524, 0.0 ], [ -58.780470663099997, -27.5450954145, 0.0 ], [ -58.780306752800001, -27.545184756200001, 0.0 ], [ -58.780469224100003, -27.544918083, 0.0 ], [ -58.780549698100003, -27.544807319899999, 0.0 ], [ -58.780957397100003, -27.5443977557, 0.0 ] ] ] } },
{ "type": "Feature", "properties": { "Name": null, "description": "MANZANASV4<BR><BR><B>ELEVATION</B> = 0", "timestamp": null, "begin": null, "end": null, "altitudeMode": "relativeToGround", "tessellate": -1, "extrude": 1, "visibility": -1, "drawOrder": null, "icon": null }, "geometry": { "type": "Polygon", "coordinates": [ [ [ -58.779300466099997, -27.5453838237, 0.0 ], [ -58.780128700699997, -27.545443492, 0.0 ], [ -58.780114164099999, -27.545471875200001, 0.0 ], [ -58.780052013599992, -27.545597097800002, 0.0 ], [ -58.779921837899998, -27.5457812203, 0.0 ], [ -58.779269473600003, -27.5457342216, 0.0 ], [ -58.779300466099997, -27.5453838237, 0.0 ] ] ] } },
{ "type": "Feature", "properties": { "Name": null, "description": "MANZANASV4<BR><BR><B>ELEVATION</B> = 0", "timestamp": null, "begin": null, "end": null, "altitudeMode": "relativeToGround", "tessellate": -1, "extrude": 1, "visibility": -1, "drawOrder": null, "icon": null }, "geometry": { "type": "Polygon", "coordinates": [ [ [ -58.779269473600003, -27.5457342216, 0.0 ], [ -58.779921837899998, -27.5457812203, 0.0 ], [ -58.779902156399999, -27.545809058, 0.0 ], [ -58.779733111500001, -27.546022091, 0.0 ], [ -58.779543646400001, -27.546211871299999, 0.0 ], [ -58.779432206, -27.546305312699999, 0.0 ], [ -58.779218330900001, -27.546289904, 0.0 ], [ -58.779269473600003, -27.5457342216, 0.0 ] ] ] } },
{ "type": "Feature", "properties": { "Name": null, "description": "MANZANASV4<BR><BR><B>ELEVATION</B> = 0", "timestamp": null, "begin": null, "end": null, "altitudeMode": "relativeToGround", "tessellate": -1, "extrude": 1, "visibility": -1, "drawOrder": null, "icon": null }, "geometry": { "type": "Polygon", "coordinates": [ [ [ -58.778118425400002, -27.544557778800009, 0.0 ], [ -58.778078613300003, -27.545024226300001, 0.0 ], [ -58.777575068600001, -27.544987942599999, 0.0 ], [ -58.777617373699997, -27.544521495, 0.0 ], [ -58.778118425400002, -27.544557778800009, 0.0 ] ] ] } },
{ "type": "Feature", "properties": { "Name": null, "description": "MANZANASV4<BR><BR><B>ELEVATION</B> = 0", "timestamp": null, "begin": null, "end": null, "altitudeMode": "relativeToGround", "tessellate": -1, "extrude": 1, "visibility": -1, "drawOrder": null, "icon": null }, "geometry": { "type": "Polygon", "coordinates": [ [ [ -58.779264317699997, -27.543542623, 0.0 ], [ -58.7791816987, -27.5444537222, 0.0 ], [ -58.777633686800002, -27.544341628600002, 0.0 ], [ -58.777688595699999, -27.5437362043, 0.0 ], [ -58.779264317699997, -27.543542623, 0.0 ] ] ] } }
]
}
