{
"type": "FeatureCollection",
"name": "area4",
"crs": { "type": "name", "properties": { "name": "urn:ogc:def:crs:OGC:1.3:CRS84" } },
"features": [
{ "type": "Feature", "properties": { "Name": null, "description": "DETALLE_MAIPU<BR><BR><B>ELEVATION</B> = 0", "timestamp": null, "begin": null, "end": null, "altitudeMode": "relativeToGround", "tessellate": -1, "extrude": 1, "visibility": -1, "drawOrder": null, "icon": null }, "geometry": { "type": "Polygon", "coordinates": [ [ [ -58.773232494200002, -27.535915720799998, 0.0 ], [ -58.774032502300003, -27.536029993700001, 0.0 ], [ -58.778149893699997, -27.535845673, 0.0 ], [ -58.777869451699992, -27.538605616800002, 0.0 ], [ -58.773644676799996, -27.538904163400002, 0.0 ], [ -58.773232494200002, -27.535915720799998, 0.0 ] ] ] } },
{ "type": "Feature", "properties": { "Name": null, "description": "DETALLE_MAIPU<BR><BR><B>ELEVATION</B> = 0", "timestamp": null, "begin": null, "end": null, "altitudeMode": "relativeToGround", "tessellate": -1, "extrude": 1, "visibility": -1, "drawOrder": null, "icon": null }, "geometry": { "type": "Polygon", "coordinates": [ [ [ -58.778129198200013, -27.539049996900001, 0.0 ], [ -58.781312307100002, -27.539023111199999, 0.0 ], [ -58.781033937700002, -27.541776840099999, 0.0 ], [ -58.7778118799, -27.542172707900001, 0.0 ], [ -58.778129198200013, -27.539049996900001, 0.0 ] ] ] } },
{ "type": "Feature", "properties": { "Name": null, "description": "0<BR><BR><B>ELEVATION</B> = 0", "timestamp": null, "begin": null, "end": null, "altitudeMode": "relativeToGround", "tessellate": -1, "extrude": 1, "visibility": -1, "drawOrder": null, "icon": null }, "geometry": { "type": "Polygon", "coordinates": [ [ [ -58.778233443899992, -27.538024073700001, 0.0 ], [ -58.78141601139999, -27.5379971889, 0.0 ], [ -58.781357950900002, -27.538571571, 0.0 ], [ -58.778175080300002, -27.538598456399999, 0.0 ], [ -58.778233443899992, -27.538024073700001, 0.0 ] ] ] } },
{ "type": "Feature", "properties": { "Name": null, "description": "0<BR><BR><B>ELEVATION</B> = 0", "timestamp": null, "begin": null, "end": null, "altitudeMode": "relativeToGround", "tessellate": -1, "extrude": 1, "visibility": -1, "drawOrder": null, "icon": null }, "geometry": { "type": "Polygon", "coordinates": [ [ [ -58.778456180600003, -27.535831956700001, 0.0 ], [ -58.778482380100002, -27.535830783400002, 0.0 ], [ -58.781622872900002, -27.5359506874, 0.0 ], [ -58.781519443299999, -27.536973938300001, 0.0 ], [ -58.778344904800008, -27.536927117600001, 0.0 ], [ -58.778456180600003, -27.535831956700001, 0.0 ] ] ] } },
{ "type": "Feature", "properties": { "Name": null, "description": "0<BR><BR><B>ELEVATION</B> = 0", "timestamp": null, "begin": null, "end": null, "altitudeMode": "relativeToGround", "tessellate": -1, "extrude": 1, "visibility": -1, "drawOrder": null, "icon": null }, "geometry": { "type": "Polygon", "coordinates": [ [ [ -58.778344904800008, -27.536927117600001, 0.0 ], [ -58.781519443299999, -27.536973938300001, 0.0 ], [ -58.78141601139999, -27.5379971889, 0.0 ], [ -58.778233443899992, -27.538024073700001, 0.0 ], [ -58.778344904800008, -27.536927117600001, 0.0 ] ] ] } },
{ "type": "Feature", "properties": { "Name": null, "description": "0<BR><BR><B>ELEVATION</B> = 0", "timestamp": null, "begin": null, "end": null, "altitudeMode": "relativeToGround", "tessellate": -1, "extrude": 1, "visibility": -1, "drawOrder": null, "icon": null }, "geometry": { "type": "Polygon", "coordinates": [ [ [ -58.773706493900008, -27.539352343499999, 0.0 ], [ -58.777823133200002, -27.53906144, 0.0 ], [ -58.777681177700003, -27.540458404, 0.0 ], [ -58.773895948100012, -27.540725884099999, 0.0 ], [ -58.773706493900008, -27.539352343499999, 0.0 ] ] ] } },
{ "type": "Feature", "properties": { "Name": null, "description": "0<BR><BR><B>ELEVATION</B> = 0", "timestamp": null, "begin": null, "end": null, "altitudeMode": "relativeToGround", "tessellate": -1, "extrude": 1, "visibility": -1, "drawOrder": null, "icon": null }, "geometry": { "type": "Polygon", "coordinates": [ [ [ -58.773895948100012, -27.540725884099999, 0.0 ], [ -58.777681177700003, -27.540458404, 0.0 ], [ -58.777503114300004, -27.542210639299999, 0.0 ], [ -58.774157433900008, -27.542621605299999, 0.0 ], [ -58.773895948100012, -27.540725884099999, 0.0 ] ] ] } },
{ "type": "Feature", "properties": { "Name": null, "description": "0<BR><BR><B>ELEVATION</B> = 0", "timestamp": null, "begin": null, "end": null, "altitudeMode": "relativeToGround", "tessellate": -1, "extrude": 1, "visibility": -1, "drawOrder": null, "icon": null }, "geometry": { "type": "Polygon", "coordinates": [ [ [ -58.775698150899998, -27.540598546, 0.0 ], [ -58.777681177700003, -27.540458404, 0.0 ], [ -58.777503114300004, -27.542210639299999, 0.0 ], [ -58.775830276800001, -27.5424161324, 0.0 ], [ -58.775698150899998, -27.540598546, 0.0 ] ] ] } },
{ "type": "Feature", "properties": { "Name": null, "description": "0<BR><BR><B>ELEVATION</B> = 0", "timestamp": null, "begin": null, "end": null, "altitudeMode": "relativeToGround", "tessellate": -1, "extrude": 1, "visibility": -1, "drawOrder": null, "icon": null }, "geometry": { "type": "Polygon", "coordinates": [ [ [ -58.778129198200013, -27.539049996900001, 0.0 ], [ -58.781312307100002, -27.539023111199999, 0.0 ], [ -58.781138163199998, -27.540745824599998, 0.0 ], [ -58.777954145, -27.540772712, 0.0 ], [ -58.778129198200013, -27.539049996900001, 0.0 ] ] ] } },
{ "type": "Feature", "properties": { "Name": null, "description": "0<BR><BR><B>ELEVATION</B> = 0", "timestamp": null, "begin": null, "end": null, "altitudeMode": "relativeToGround", "tessellate": -1, "extrude": 1, "visibility": -1, "drawOrder": null, "icon": null }, "geometry": { "type": "Polygon", "coordinates": [ [ [ -58.777954145, -27.540772712, 0.0 ], [ -58.781138163199998, -27.540745824599998, 0.0 ], [ -58.781033937700002, -27.541776840099999, 0.0 ], [ -58.7778118799, -27.542172707900001, 0.0 ], [ -58.777954145, -27.540772712, 0.0 ] ] ] } },
{ "type": "Feature", "properties": { "Name": null, "description": "DETALLE_MAIPU<BR><BR><B>ELEVATION</B> = 0", "timestamp": null, "begin": null, "end": null, "altitudeMode": "relativeToGround", "tessellate": -1, "extrude": 1, "visibility": -1, "drawOrder": null, "icon": null }, "geometry": { "type": "Polygon", "coordinates": [ [ [ -58.777954145, -27.540772712, 0.0 ], [ -58.7787886224, -27.540765672300001, 0.0 ], [ -58.778656850599987, -27.5420689008, 0.0 ], [ -58.7778118799, -27.542172707900001, 0.0 ], [ -58.777954145, -27.540772712, 0.0 ] ] ] } },
{ "type": "Feature", "properties": { "Name": null, "description": "0<BR><BR><B>ELEVATION</B> = 0", "timestamp": null, "begin": null, "end": null, "altitudeMode": "relativeToGround", "tessellate": -1, "extrude": 1, "visibility": -1, "drawOrder": null, "icon": null }, "geometry": { "type": "Polygon", "coordinates": [ [ [ -58.775698150899998, -27.540598546, 0.0 ], [ -58.777681177700003, -27.540458404, 0.0 ], [ -58.7776347621, -27.540915164099999, 0.0 ], [ -58.775738103300007, -27.541148155399998, 0.0 ], [ -58.775698150899998, -27.540598546, 0.0 ] ] ] } },
{ "type": "Feature", "properties": { "Name": null, "description": "0<BR><BR><B>ELEVATION</B> = 0", "timestamp": null, "begin": null, "end": null, "altitudeMode": "relativeToGround", "tessellate": -1, "extrude": 1, "visibility": -1, "drawOrder": null, "icon": null }, "geometry": { "type": "Polygon", "coordinates": [ [ [ -58.773895948100012, -27.540725884099999, 0.0 ], [ -58.7749561296, -27.540650977799999, 0.0 ], [ -58.775053551699997, -27.5419912903, 0.0 ], [ -58.774079978899998, -27.5420600771, 0.0 ], [ -58.773895948100012, -27.540725884099999, 0.0 ] ] ] } },
{ "type": "Feature", "properties": { "Name": null, "description": "0<BR><BR><B>ELEVATION</B> = 0", "timestamp": null, "begin": null, "end": null, "altitudeMode": "relativeToGround", "tessellate": -1, "extrude": 1, "visibility": -1, "drawOrder": null, "icon": null }, "geometry": { "type": "Polygon", "coordinates": [ [ [ -58.774079978899998, -27.5420600771, 0.0 ], [ -58.775053551699997, -27.5419912903, 0.0 ], [ -58.775091032400013, -27.5425069353, 0.0 ], [ -58.774157433900008, -27.542621605299999, 0.0 ], [ -58.774079978899998, -27.5420600771, 0.0 ] ] ] } }
]
}
